#dP2022  7 14  6  0  0.00000000      96 __u+U ITR00 EXT  IAC
## 2218 367200.00000000   900.00000000 59774 0.2500000000000
+  116   C06C07C08C09C10C11C12C13C14C16C19C20C21C22C23C24C25
+        C26C27C28C29C30C32C33C34C35C36C37C38C39C40C41C42C43
+        C44C45C46E01E02E03E04E05E07E08E09E10E11E12E13E14E15
+        E18E19E21E24E25E26E27E30E31E33E34E36G01G02G03G04G05
+        G06G07G08G09G10G11G12G13G14G15G16G17G18G19G20G21G22
+        G23G24G25G26G27G28G29G30G31G32J02J03R01R02R03R04R05
+        R07R08R09R11R12R13R14R15R17R18R19R20R21R24  0  0  0
++         9 10 10 10  9  9  9 11  8  9  8  9  7  8  9  8  9
++         8 10  9  9  9  9  9  8  9 11 10 10  9 11  9  7 10
++         9  9  8  8  8 10  8  9 10  9  8 12  8  8  8 10  9
++         8  8  8  8  6  8  8  8  9  9  8  7  8  9  7  8  7
++         8  7  7  8  8  8  8  8  8  9  7  8  9  8  8  8  9
++         7  7  7  8  8  8  8  8  9  8  9  8  9 10  9  9  7
++         8  8  8  9  8  9  8  7 10 10  9  8  7  9  0  0  0
%c M  cc GPS ccc cccc cccc cccc cccc ccccc ccccc ccccc ccccc
%c cc cc ccc ccc cccc cccc cccc cccc ccccc ccccc ccccc ccccc
%f  0.0000000  0.000000000  0.00000000000  0.000000000000000
%f  0.0000000  0.000000000  0.00000000000  0.000000000000000
%i    0    0    0    0      0      0      0      0         0
%i    0    0    0    0      0      0      0      0         0
/* IAC                                ULTRA-RAPID PREDICTION
/* S/V CLOCKS ARE ALIGNED TO GNSS TIME                      
/* G:C1WC2W R:C1PC2P E:C1XC5X C:C2IC6I J:C1CC2S             
/* PCV:IGS14_2215 OL/AL:FES2004  NONE     YN ORB:CoN CLK:CoN
*  2022 07 14  6 15  0.00000000
PC06 -18033.111213  30007.886385 -23632.942828    390.220518
PC07  -5352.667081  40022.199332 -11778.183593   -426.748442
PC08   -580.653804  22683.229586  35543.997969    403.373694
PC09 -11743.064947  28831.146602 -28288.096073   -928.385913
PC10   -216.973543  41383.002832  -6168.058123    118.638035
PC11 -23788.949401  14487.063978  -1315.262669    473.317669
PC12 -21929.374977   1039.017073 -17186.742657   -577.500189
PC13   4090.651194  25446.778646  33555.171221     23.468752
PC14 -13099.237405  13450.733366  20644.265031    540.679876
PC16 -20472.491943  29669.892142 -21873.750194    143.068579
PC19   8235.145713 -22180.617256 -14791.934515   -205.891849
PC20  15293.242136  -4743.297529 -22846.006958   -963.905175
PC21 -13590.302885 -16825.394082  17664.288954   -674.320653
PC22  -3827.217598 -27576.061364   2148.972793   -962.827622
PC23   7761.852730  18859.758618 -19034.615735   -945.094930
PC24 -25202.901266  -2675.242828 -11657.063223   -967.807156
PC25 -11251.713704  12495.299504 -22271.849578   -707.868140
PC26 -23858.416229 -13846.137926   4092.137392    709.831009
PC27  16502.569699   6765.040987  21435.596282    753.944975
PC28   -830.432506  18217.181099  21118.885268     89.786658
PC29  17819.367178 -19947.685603  -7972.026801    581.447648
PC30  24338.748239  -9124.532105  10120.731752    501.071598
PC32  13693.961908  16757.507903 -17596.691705   -972.627625
PC33  -8206.935731  22121.730199  14888.059795   -161.312245
PC34 -24438.187595   9894.169584  -9190.182250   -359.250086
PC35   1342.271774 -18772.031814 -20608.188170    365.004842
PC36  12099.446443 -11895.966730  22185.014722   -973.482268
PC37  22965.881829  14984.250993  -5208.083768   -916.744858
PC38  -9607.962499  21155.671239  35186.366627     10.004351
PC39 -24102.967907  30464.930180 -16589.121097     -0.048200
PC40 -10251.842758  37679.829670 -15624.038304     -0.531852
PC41   3562.368840  27626.834320  -1584.622364    -79.032482
PC42 -15556.690216   3431.977993  22953.161407   -953.784512
PC43 -18387.089010  19710.221739   7246.894432      2.834035
PC44 -16689.936627  -6440.116641 -21440.684214    723.469881
PC45  -8122.287194 -18799.988040  18956.408307    808.482839
PC46  24665.803416   1479.043695  13009.746689   -430.886860
PE01   1018.827462  23307.102478 -18212.499861   -514.789936
PE02  -1157.563868 -23382.874256  18108.993585    311.832634
PE03   8359.069667 -27775.143914   5945.440807   -578.798895
PE04   6610.545291  20166.377593 -20624.068631  -1071.000697
PE05  18724.093906 -19190.172197 -12542.047330   -163.144741
PE07 -18047.162927   -430.533885  23465.260768   -687.328713
PE08  -6698.670001 -19967.032579  20809.772384   -563.309244
PE09  17929.395536    274.897163 -23547.314419   -586.963685
PE10  23583.629583   8098.819023  15939.985659   -500.412514
PE11  28766.051231   1774.255302   6707.995120   3016.523510
PE12  14924.212759  12999.980810  21994.338820    -61.134963
PE13 -28566.479979  -2174.810738  -7455.517145    429.804515
PE14 -13816.876332 -15403.702523 -24222.204478  -1779.636506
PE15 -14791.574087 -12964.299737 -22123.909466    733.386782
PE18  17255.912023   1465.693095  17945.978540  -1216.315111
PE19 -10195.396328  27555.464459  -3585.623945  -5098.749076
PE21 -13726.718411   9448.746228 -24459.034719   -745.790950
PE24  21691.443356  11858.420387  16285.958647   -723.838625
PE25  13921.668305  -9177.346890  24467.165232   -580.985555
PE26 -24913.681593  10281.044036  12227.257666  -1374.808492
PE27 -21636.497206 -10728.666906 -17103.898657   -344.366481
PE30 -16129.711973 -24787.891025   1121.896520   -670.770933
PE31  16757.324728  24398.486242   -222.499622   -499.882445
PE33  -7637.860023  16049.510672  23664.871025   -454.718108
PE34   7393.171689 -16091.581836 -23734.460885   -485.752070
PE36  25457.886740  -9810.986382 -11482.696974   -401.903248
PG01 -12810.258433 -13304.884390 -19526.194121    321.805992
PG02 -10784.406910  14573.731310  20115.728459   -651.450142
PG03 -12465.166965 -23517.627551   -654.144015   -306.626998
PG04  -3763.921666 -18313.585696  18838.166823   -146.127095
PG05   3011.804812  22674.758955  13205.820931    -89.067015
PG06 -23429.985214   6559.271095  10805.158893    384.130930
PG07 -24829.312161  -6462.532960   8209.000744    319.346490
PG08   2119.088995 -22609.760720 -13517.306789    -76.113335
PG09 -12770.268470  -8491.106673  21617.824516   -319.225963
PG10  16623.104414   1136.546516 -20607.600768   -491.144676
PG11 -12855.931892  12645.411716  19485.566934    -10.791562
PG12   8944.870868  24875.711210  -3389.249168   -246.122507
PG13 -12077.692521  22562.232806  -6904.689816    348.069825
PG14 -17313.497863  -2759.759731 -19976.534795   -111.839738
PG15    954.427681  22926.103951 -13527.094586    -45.578506
PG16   3909.634357 -19758.731573  16798.242297   -515.215218
PG17 -18952.099566   8057.334825 -16370.660458    636.627983
PG18  24736.652276   6183.444517   7651.273034    113.874367
PG19 -19675.045533  14698.525698 -10063.442539    183.466842
PG20  -6276.732399  15921.005266  20368.096024    503.376492
PG21  -3198.446306 -14723.089129 -21281.668508    161.115191
PG22  18519.344993 -17441.207490  -6891.728667    292.036208
PG23  18723.184673  11558.771413 -14969.400735    -32.829193
PG24   9017.869775  14710.777188 -20588.239021    197.427381
PG25  17203.672232  18449.556645   8450.347319    348.934085
PG26  10802.087184 -11866.100259  21043.730386    218.105354
PG27  12208.803206 -23260.328886  -2211.677948    220.616456
PG28 -13138.521048   6923.935043 -21518.424382    334.211380
PG29  11816.957863   8847.963517  22027.612627   -533.367819
PG30 -26592.900545    697.377059  -2198.440541   -533.935759
PG31  22291.081733  -7865.628721  12429.713519   -185.671245
PG32  18744.107566 -10966.044362 -15011.956479   -175.806123
PJ02 -21493.100841  19978.988887 -25698.884655     -1.668858
PJ03 -28279.814557  29979.603848  13673.553357     -0.126019
PR01  -2121.157955  25409.862366    377.959272     11.455926
PR02   6293.160903  17605.278128 -17341.651560    524.067081
PR03  10965.301405   -332.449184 -22981.698030     60.179672
PR04   9275.370450 -17736.347053 -15778.954394    150.585984
PR05   2678.461831 -25355.342854    133.862584     96.206683
PR07 -11062.153324   1260.204123  22991.828118     37.832985
PR08  -9297.231002  17856.751518  15737.788739    -66.188232
PR09 -19237.998320 -16108.547956   4836.830237     65.681664
PR11 -11586.245542   4763.325536 -22208.152122     33.348687
PR12   5789.007898  15492.051750 -19394.454761     19.289587
PR13  18480.512172  16447.975396  -6215.385603    -24.587282
PR14  21024.726161   7480.550190  12353.657429     24.892807
PR15  10930.655985  -5431.128566  22421.959463     94.692189
PR17  22616.179117  -4653.653424  10889.216383    543.337730
PR18  21575.067422 -12249.846639  -5816.161587    123.434062
PR19  10788.705702 -13386.984646 -18853.615038   -196.233106
PR20 -10143.990206  -6652.370256 -22444.636082    -74.548227
PR21 -23023.721038   5420.899211  -9518.206280   -317.252780
PR24  11119.691709   6438.864121  22047.353426    103.482921
EOF
